SKYSAT-C4               
1 41771U 16058B   26197.59530148  .00010768  00000+0  19730-3 0  9994
2 41771  96.9160 218.1520 0003471 115.6597 244.5014 15.49466219550020
SKYSAT-C5               
1 41772U 16058C   26197.64663659  .00003977  00000+0  12421-3 0  9999
2 41772  97.0452 236.9643 0002707 156.7043 203.4323 15.33730928548268
SKYSAT-C2               
1 41773U 16058D   26198.03762863  .00006857  00000+0  15901-3 0  9997
2 41773  97.0157 219.0205 0001163 344.4886  15.6326 15.42705986549659
SKYSAT-C3               
1 41774U 16058E   26198.03754473  .00014444  00000+0  22667-3 0  9994
2 41774  96.8991 227.7582 0002623 130.7873 229.3610 15.53761650550745
ALSAT-1B                
1 41785U 16059C   26198.21181377  .00000302  00000+0  55207-4 0  9999
2 41785  97.7749 205.6802 0010429 124.0962 236.1237 14.72296018524996
PATHFINDER 1            
1 41787U 16059E   26197.92948630  .00000259  00000+0  53401-4 0  9996
2 41787  97.8177 195.8650 0029874 110.4511 249.9906 14.67694260524077
SCATSAT 1               
1 41790U 16059H   26198.10528542  .00000639  00000+0  90578-4 0  9995
2 41790  98.1177 262.1782 0055344 150.4876 209.9478 14.79589993106017
GOKTURK 1A              
1 41875U 16073A   26198.13807138  .00000304  00000+0  68767-4 0  9993
2 41875  98.1214  92.3384 0001429  80.8109 279.3255 14.62794439513206
RESOURCESAT-2A          
1 41877U 16074A   26198.19447174 -.00000082  00000+0 -17160-4 0  9998
2 41877  98.7521 271.4519 0002292  23.3701 336.7580 14.21608302498562
CARTOSAT-2D             
1 41948U 17008A   26198.19226880  .00001536  00000+0  75988-4 0  9999
2 41948  97.4087 256.9350 0006175 133.0003 227.1750 15.19291337522130
SENTINEL-2B             
1 42063U 17013A   26198.20751140 -.00000182  00000+0 -52874-4 0  9995
2 42063  98.5687 272.5567 0001189  91.4616 268.6703 14.30814824488939
CARTOSAT-2E             
1 42767U 17036C   26198.14421058  .00001592  00000+0  78706-4 0  9992
2 42767  97.4259 257.4499 0003519 180.3549 179.7684 15.19262492502697
FORMOSAT-5              
1 42920U 17049A   26198.18974588  .00000033  00000+0  19478-4 0  9992
2 42920  98.2245 272.8317 0011204 357.6797   2.4344 14.50908129471021
SENTINEL-5P             
1 42969U 17064A   26197.80595139  .00000011  00000+0  26266-4 0  9990
2 42969  98.7929 139.7277 0001157  93.4988 266.6320 14.19523414453761
SKYSAT-C11              
1 42987U 17068A   26197.91021797  .00017861  00000+0  22757-3 0  9991
2 42987  97.4384 348.0740 0001188 156.0584 204.0728 15.59386561487876
SKYSAT-C10              
1 42988U 17068B   26197.89009115  .00005733  00000+0  17054-3 0  9998
2 42988  97.4545 335.0424 0001492 111.5175 248.6227 15.35136658486917
SKYSAT-C9               
1 42989U 17068C   26197.89658957  .00007246  00000+0  17055-3 0  9995
2 42989  97.4465 336.2721 0008498  39.2579 320.9283 15.42239505487335
SKYSAT-C8               
1 42990U 17068D   26197.88085216  .00005671  00000+0  15644-3 0  9990
2 42990  97.4561 334.9473 0001235 104.3505 255.7877 15.37510947486876
SKYSAT-C7               
1 42991U 17068E   26198.20081062  .00005434  00000+0  15016-3 0  9993
2 42991  97.4574 336.2638 0005577  14.5306 345.6097 15.37464528486981
SKYSAT-C6               
1 42992U 17068F   26197.88883524  .00004825  00000+0  14824-3 0  9999
2 42992  97.4610 335.7930 0005071  85.2872 274.8949 15.34186668486874
CARTOSAT-2F             
1 43111U 18004A   26198.17685139  .00002608  00000+0  12723-3 0  9992
2 43111  97.4769 257.5161 0002408 130.5686 229.5759 15.19182130471882
GAOFEN-1 02             
1 43259U 18031A   26198.18544503 -.00000265  00000+0 -30708-4 0  9998
2 43259  98.0513 260.6261 0001483 274.1895  85.9145 14.76471247447129
GAOFEN-1 03             
1 43260U 18031B   26198.16355477  .00000303  00000+0  51020-4 0  9999
2 43260  98.0502 260.4594 0002256  10.0793 350.0461 14.76463996447117
GAOFEN-1 04             
1 43262U 18031D   26198.00370697  .00000312  00000+0  52267-4 0  9999
2 43262  98.0514 260.4945 0001186  56.3841 303.7482 14.76472043447087
SENTINEL-3B             
1 43437U 18039A   26198.13515455  .00000050  00000+0  38641-4 0  9997
2 43437  98.6235 265.2355 0001191 119.8190 240.3109 14.26736718428395
GAOFEN-5 01             
1 43461U 18043A   26197.86125266  .00000129  00000+0  36625-4 0  9992
2 43461  98.4591 170.0743 0002001  28.4856 331.6453 14.60623942436021
GAOFEN-6                
1 43484U 18048A   26198.16191215  .00000342  00000+0  56778-4 0  9991
2 43484  98.0956 260.8683 0012107  76.0589 284.1966 14.76385470437815
GAOFEN-11 01            
1 43585U 18063A   26198.21158287  .00006216  00000+0  90464-4 0  9994
2 43585  97.1271 265.0203 0003422 190.9857 169.1324 15.56103394445019
ICESAT-2                
1 43613U 18070A   26198.21017009  .00005048  00000+0  18366-3 0  9992
2 43613  92.0094 299.0926 0005448  54.4090 305.7666 15.28198147437040
HYSIS                   
1 43719U 18096A   26198.18946219 -.00000086  00000+0 -46852-5 0  9999
2 43719  97.9828 264.6998 0001787  82.4438 277.6976 14.78670466411857
KAZSTSAT                
1 43783U 18099AB  26198.05124711  .00000268  00000+0  26033-4 0  9992
2 43783  97.4316 228.6342 0007281 333.4317  26.6533 14.99957094415783
