OBJECT_NAME,OBJECT_ID,EPOCH,MEAN_MOTION,ECCENTRICITY,INCLINATION,RA_OF_ASC_NODE,ARG_OF_PERICENTER,MEAN_ANOMALY,EPHEMERIS_TYPE,CLASSIFICATION_TYPE,NORAD_CAT_ID,ELEMENT_SET_NO,REV_AT_EPOCH,BSTAR,MEAN_MOTION_DOT,MEAN_MOTION_DDOT
SKYSAT-C4,2016-058B,2026-07-16T14:17:14.047872,15.49466219,.0003471,96.9160,218.1520,115.6597,244.5014,0,U,41771,999,55002,.1973E-3,.10768E-3,0
SKYSAT-C5,2016-058C,2026-07-16T15:31:09.401376,15.33730928,.0002707,97.0452,236.9643,156.7043,203.4323,0,U,41772,999,54826,.12421E-3,.3977E-4,0
SKYSAT-C2,2016-058D,2026-07-17T00:54:11.113632,15.42705986,.0001163,97.0157,219.0205,344.4886,15.6326,0,U,41773,999,54965,.15901E-3,.6857E-4,0
SKYSAT-C3,2016-058E,2026-07-17T00:54:03.864672,15.53761650,.0002623,96.8991,227.7582,130.7873,229.3610,0,U,41774,999,55074,.22667E-3,.14444E-3,0
ALSAT-1B,2016-059C,2026-07-17T05:05:00.709728,14.72296018,.0010429,97.7749,205.6802,124.0962,236.1237,0,U,41785,999,52499,.55207E-4,.302E-5,0
PATHFINDER 1,2016-059E,2026-07-16T22:18:27.616320,14.67694260,.0029874,97.8177,195.8650,110.4511,249.9906,0,U,41787,999,52407,.53401E-4,.259E-5,0
SCATSAT 1,2016-059H,2026-07-17T02:31:36.660288,14.79589993,.0055344,98.1177,262.1782,150.4876,209.9478,0,U,41790,999,10601,.90578E-4,.639E-5,0
GOKTURK 1A,2016-073A,2026-07-17T03:18:49.367232,14.62794439,.0001429,98.1214,92.3384,80.8109,279.3255,0,U,41875,999,51320,.68767E-4,.304E-5,0
RESOURCESAT-2A,2016-074A,2026-07-17T04:40:02.358336,14.21608302,.0002292,98.7521,271.4519,23.3701,336.7580,0,U,41877,999,49856,-.1716E-4,-.82E-6,0
CARTOSAT-2D,2017-008A,2026-07-17T04:36:52.024320,15.19291337,.0006175,97.4087,256.9350,133.0003,227.1750,0,U,41948,999,52213,.75988E-4,.1536E-4,0
SENTINEL-2B,2017-013A,2026-07-17T04:58:48.984960,14.30814824,.0001189,98.5687,272.5567,91.4616,268.6703,0,U,42063,999,48893,-.52874E-4,-.182E-5,0
CARTOSAT-2E,2017-036C,2026-07-17T03:27:39.794112,15.19262492,.0003519,97.4259,257.4499,180.3549,179.7684,0,U,42767,999,50269,.78706E-4,.1592E-4,0
FORMOSAT-5,2017-049A,2026-07-17T04:33:14.044032,14.50908129,.0011204,98.2245,272.8317,357.6797,2.4344,0,U,42920,999,47102,.19478E-4,.33E-6,0
SENTINEL-5P,2017-064A,2026-07-16T19:20:34.200096,14.19523414,.0001157,98.7929,139.7277,93.4988,266.6320,0,U,42969,999,45376,.26266E-4,.11E-6,0
SKYSAT-C11,2017-068A,2026-07-16T21:50:42.832608,15.59386561,.0001188,97.4384,348.0740,156.0584,204.0728,0,U,42987,999,48787,.22757E-3,.17861E-3,0
SKYSAT-C10,2017-068B,2026-07-16T21:21:43.875360,15.35136658,.0001492,97.4545,335.0424,111.5175,248.6227,0,U,42988,999,48691,.17054E-3,.5733E-4,0
SKYSAT-C9,2017-068C,2026-07-16T21:31:05.338848,15.42239505,.0008498,97.4465,336.2721,39.2579,320.9283,0,U,42989,999,48733,.17055E-3,.7246E-4,0
SKYSAT-C8,2017-068D,2026-07-16T21:08:25.626624,15.37510947,.0001235,97.4561,334.9473,104.3505,255.7877,0,U,42990,999,48687,.15644E-3,.5671E-4,0
SKYSAT-C7,2017-068E,2026-07-17T04:49:10.037568,15.37464528,.0005577,97.4574,336.2638,14.5306,345.6097,0,U,42991,999,48698,.15016E-3,.5434E-4,0
SKYSAT-C6,2017-068F,2026-07-16T21:19:55.364736,15.34186668,.0005071,97.4610,335.7930,85.2872,274.8949,0,U,42992,999,48687,.14824E-3,.4825E-4,0
CARTOSAT-2F,2018-004A,2026-07-17T04:14:39.960096,15.19182130,.0002408,97.4769,257.5161,130.5686,229.5759,0,U,43111,999,47188,.12723E-3,.2608E-4,0
GAOFEN-1 02,2018-031A,2026-07-17T04:27:02.450592,14.76471247,.0001483,98.0513,260.6261,274.1895,85.9145,0,U,43259,999,44712,-.30708E-4,-.265E-5,0
GAOFEN-1 03,2018-031B,2026-07-17T03:55:31.132128,14.76463996,.0002256,98.0502,260.4594,10.0793,350.0461,0,U,43260,999,44711,.5102E-4,.303E-5,0
GAOFEN-1 04,2018-031D,2026-07-17T00:05:20.282208,14.76472043,.0001186,98.0514,260.4945,56.3841,303.7482,0,U,43262,999,44708,.52267E-4,.312E-5,0
SENTINEL-3B,2018-039A,2026-07-17T03:14:37.353120,14.26736718,.0001191,98.6235,265.2355,119.8190,240.3109,0,U,43437,999,42839,.38641E-4,.5E-6,0
GAOFEN-5 01,2018-043A,2026-07-16T20:40:12.229824,14.60623942,.0002001,98.4591,170.0743,28.4856,331.6453,0,U,43461,999,43602,.36625E-4,.129E-5,0
GAOFEN-6,2018-048A,2026-07-17T03:53:09.209760,14.76385470,.0012107,98.0956,260.8683,76.0589,284.1966,0,U,43484,999,43781,.56778E-4,.342E-5,0
GAOFEN-11 01,2018-063A,2026-07-17T05:04:40.759968,15.56103394,.0003422,97.1271,265.0203,190.9857,169.1324,0,U,43585,999,44501,.90464E-4,.6216E-4,0
ICESAT-2,2018-070A,2026-07-17T05:02:38.695776,15.28198147,.0005448,92.0094,299.0926,54.4090,305.7666,0,U,43613,999,43704,.18366E-3,.5048E-4,0
HYSIS,2018-096A,2026-07-17T04:32:49.533216,14.78670466,.0001787,97.9828,264.6998,82.4438,277.6976,0,U,43719,999,41185,-.46852E-5,-.86E-6,0
KAZSTSAT,2018-099AB,2026-07-17T01:13:47.750304,14.99957094,.0007281,97.4316,228.6342,333.4317,26.6533,0,U,43783,999,41578,.26033E-4,.268E-5,0
